BLUEWALKER-3            
1 53807U 22111AL  26204.29885614  .00004790  00000+0  13366-3 0  9998
2 53807  53.2275 224.3819 0004806 301.0429  59.0104 15.38673785215768
SPACEMOBILE-003         
1 61045U 24163A   26204.03425621  .00002495  00000+0  12678-3 0  9995
2 61045  52.9686 144.5962 0003596 220.2566 139.8162 15.20673687103224
SPACEMOBILE-005         
1 61046U 24163B   26204.21492986  .00001507  00000+0  82557-4 0  9991
2 61046  52.9740 143.7232 0008301 219.1098 140.9297 15.20624425103243
SPACEMOBILE-001         
1 61047U 24163C   26204.54181855 -.00000036  00000+0  13127-4 0  9992
2 61047  52.9700 141.9250 0006712 219.0311 141.0200 15.20677408103291
SPACEMOBILE-002         
1 61048U 24163D   26204.06618635  .00022234  00000+0  10167-2 0  9993
2 61048  52.9773 144.1623 0004783 212.6215 147.4484 15.20478362103224
SPACEMOBILE-004         
1 61049U 24163E   26204.11393918  .00021285  00000+0  96977-3 0  9993
2 61049  52.9731 143.7101 0005257 250.7696 109.2730 15.20626990103231
SPACEMOBILE-006         
1 67232U 25309A   26204.30550480  .00002971  00000+0  15662-3 0  9999
2 67232  52.9955 166.1784 0009444 243.3198 116.6829 15.18692366 32084
SPACEMOBILE-008         
1 69589U 26139A   26204.41099118  .00000635  00000+0  52702-4 0  9998
2 69589  52.9953  98.1065 0005414  74.4796 285.6792 15.12816135  5469
SPACEMOBILE-009         
1 69590U 26139B   26204.41351944  .00001280  00000+0  89219-4 0  9998
2 69590  52.9945  98.1165 0005591  72.4156 287.7445 15.12716576  5463
SPACEMOBILE-010         
1 69591U 26139C   26204.41752193  .00001341  00000+0  93062-4 0  9999
2 69591  52.9950  98.1442 0005627  64.9779 295.1795 15.12553810  5477
